1 29155U 06018A   09276.13363015 -.00000083  00000-0  10000-3 0  7717
2 29155 000.1466 113.3670 0003314 088.4193 112.8075 01.00272775 12330